{"type": "FeatureCollection", "features": [ {"type": "Feature", "properties": {"norad_id": 44476, "name": "INTELSAT 39 (IS-39)", "group": "intelsat", "lat": 0.02266121322940713, "lon": 134.78705389297286, "alt_km": 35781.12642344166, "timestamp": "2025-12-22T22:44:20.618883+00:00", "meta": {"OBJECT_NAME": "INTELSAT 39 (IS-39)", "OBJECT_ID": "2019-049B", "EPOCH": "2025-12-22T12:14:38.401152", "MEAN_MOTION": 1.0027593, "ECCENTRICITY": 9.227e-05, "INCLINATION": 0.0182, "RA_OF_ASC_NODE": 338.4161, "ARG_OF_PERICENTER": 170.6824, "MEAN_ANOMALY": 187.8346, "EPHEMERIS_TYPE": 0, "CLASSIFICATION_TYPE": "U", "NORAD_CAT_ID": 44476, "ELEMENT_SET_NO": 999, "REV_AT_EPOCH": 2335, "BSTAR": 0, "MEAN_MOTION_DOT": 5.4e-07, "MEAN_MOTION_DDOT": 0}, "tle": {"line1": "1 44476U 19049B   25356.51016668  .00000054  00000+0  00000+0 0  9999", "line2": "2 44476   0.0182 338.4161 0000922 170.6824 187.8346  1.00275930 23352"}}, "geometry": {"type": "Point", "coordinates": [134.78705389297286, 0.02266121322940713]}}, {"type": "Feature", "properties": {"norad_id": 46114, "name": "GALAXY 30 (G-30)", "group": "intelsat", "lat": -0.03753217854207847, "lon": -52.1571947963059, "alt_km": 35780.13991579979, "timestamp": "2025-12-22T22:44:20.618895+00:00", "meta": {"OBJECT_NAME": "GALAXY 30 (G-30)", "OBJECT_ID": "2020-056C", "EPOCH": "2025-12-22T13:04:11.368128", "MEAN_MOTION": 1.00270116, "ECCENTRICITY": 0.00020135, "INCLINATION": 0.018, "RA_OF_ASC_NODE": 8.4088, "ARG_OF_PERICENTER": 257.8637, "MEAN_ANOMALY": 256.1286, "EPHEMERIS_TYPE": 0, "CLASSIFICATION_TYPE": "U", "NORAD_CAT_ID": 46114, "ELEMENT_SET_NO": 999, "REV_AT_EPOCH": 1952, "BSTAR": 0, "MEAN_MOTION_DOT": 5.9e-07, "MEAN_MOTION_DDOT": 0}, "tle": {"line1": "1 46114U 20056C   25356.54457602  .00000059  00000+0  00000+0 0  9995", "line2": "2 46114   0.0180   8.4088 0002013 257.8637 256.1286  1.00270116 19524"}}, "geometry": {"type": "Point", "coordinates": [-52.1571947963059, -0.03753217854207847]}}, {"type": "Feature", "properties": {"norad_id": 54026, "name": "GALAXY 33 (G-33)", "group": "intelsat", "lat": -0.016416731507205063, "lon": -60.162304881220585, "alt_km": 35780.58986149427, "timestamp": "2025-12-22T22:44:20.618906+00:00", "meta": {"OBJECT_NAME": "GALAXY 33 (G-33)", "OBJECT_ID": "2022-128A", "EPOCH": "2025-12-22T11:35:15.906336", "MEAN_MOTION": 1.00271669, "ECCENTRICITY": 0.00015964, "INCLINATION": 0.0184, "RA_OF_ASC_NODE": 305.6803, "ARG_OF_PERICENTER": 318.2802, "MEAN_ANOMALY": 228.1459, "EPHEMERIS_TYPE": 0, "CLASSIFICATION_TYPE": "U", "NORAD_CAT_ID": 54026, "ELEMENT_SET_NO": 999, "REV_AT_EPOCH": 1197, "BSTAR": 0, "MEAN_MOTION_DOT": 1.01e-06, "MEAN_MOTION_DDOT": 0}, "tle": {"line1": "1 54026U 22128A   25356.48282299  .00000101  00000+0  00000+0 0  9997", "line2": "2 54026   0.0184 305.6803 0001596 318.2802 228.1459  1.00271669 11973"}}, "geometry": {"type": "Point", "coordinates": [-60.162304881220585, -0.016416731507205063]}}, {"type": "Feature", "properties": {"norad_id": 54027, "name": "GALAXY 34 (G-34)", "group": "intelsat", "lat": -0.032585938565707254, "lon": -56.12010531665593, "alt_km": 35780.99655196191, "timestamp": "2025-12-22T22:44:20.618918+00:00", "meta": {"OBJECT_NAME": "GALAXY 34 (G-34)", "OBJECT_ID": "2022-128B", "EPOCH": "2025-12-22T11:37:11.794656", "MEAN_MOTION": 1.0026916, "ECCENTRICITY": 0.0001778, "INCLINATION": 0.0236, "RA_OF_ASC_NODE": 339.9212, "ARG_OF_PERICENTER": 284.087, "MEAN_ANOMALY": 232.6265, "EPHEMERIS_TYPE": 0, "CLASSIFICATION_TYPE": "U", "NORAD_CAT_ID": 54027, "ELEMENT_SET_NO": 999, "REV_AT_EPOCH": 1214, "BSTAR": 0, "MEAN_MOTION_DOT": 0, "MEAN_MOTION_DDOT": 0}, "tle": {"line1": "1 54027U 22128B   25356.48416429  .00000000  00000+0  00000+0 0  9990", "line2": "2 54027   0.0236 339.9212 0001778 284.0870 232.6265  1.00269160 12141"}}, "geometry": {"type": "Point", "coordinates": [-56.12010531665593, -0.032585938565707254]}}, {"type": "Feature", "properties": {"norad_id": 54243, "name": "GALAXY 31 (G-31)", "group": "intelsat", "lat": -0.003954205091264337, "lon": -48.171611742659934, "alt_km": 35780.980326431156, "timestamp": "2025-12-22T22:44:20.618943+00:00", "meta": {"OBJECT_NAME": "GALAXY 31 (G-31)", "OBJECT_ID": "2022-153A", "EPOCH": "2025-12-22T10:46:17.208192", "MEAN_MOTION": 1.00271243, "ECCENTRICITY": 0.00014211, "INCLINATION": 0.0305, "RA_OF_ASC_NODE": 248.2472, "ARG_OF_PERICENTER": 33.9442, "MEAN_ANOMALY": 209.631, "EPHEMERIS_TYPE": 0, "CLASSIFICATION_TYPE": "U", "NORAD_CAT_ID": 54243, "ELEMENT_SET_NO": 999, "REV_AT_EPOCH": 536, "BSTAR": 0, "MEAN_MOTION_DOT": 3.5e-07, "MEAN_MOTION_DDOT": 0}, "tle": {"line1": "1 54243U 22153A   25356.44881028  .00000035  00000+0  00000+0 0  9993", "line2": "2 54243   0.0305 248.2472 0001421  33.9442 209.6310  1.00271243  5365"}}, "geometry": {"type": "Point", "coordinates": [-48.171611742659934, -0.003954205091264337]}}, {"type": "Feature", "properties": {"norad_id": 54244, "name": "GALAXY 32 (G-32)", "group": "intelsat", "lat": -0.010631872334458232, "lon": -18.17324374712831, "alt_km": 35778.830654201294, "timestamp": "2025-12-22T22:44:20.618956+00:00", "meta": {"OBJECT_NAME": "GALAXY 32 (G-32)", "OBJECT_ID": "2022-153B", "EPOCH": "2025-12-22T07:35:47.616576", "MEAN_MOTION": 1.00270236, "ECCENTRICITY": 0.00019823, "INCLINATION": 0.0109, "RA_OF_ASC_NODE": 353.9495, "ARG_OF_PERICENTER": 325.6757, "MEAN_ANOMALY": 154.4441, "EPHEMERIS_TYPE": 0, "CLASSIFICATION_TYPE": "U", "NORAD_CAT_ID": 54244, "ELEMENT_SET_NO": 999, "REV_AT_EPOCH": 1137, "BSTAR": 0, "MEAN_MOTION_DOT": -1.52e-06, "MEAN_MOTION_DDOT": 0}, "tle": {"line1": "1 54244U 22153B   25356.31652334 -.00000152  00000+0  00000+0 0  9997", "line2": "2 54244   0.0109 353.9495 0001982 325.6757 154.4441  1.00270236 11370"}}, "geometry": {"type": "Point", "coordinates": [-18.17324374712831, -0.010631872334458232]}}, {"type": "Feature", "properties": {"norad_id": 54741, "name": "GALAXY 35 (G-35)", "group": "intelsat", "lat": -0.024829610223151232, "lon": -20.24447029945659, "alt_km": 35782.33354667065, "timestamp": "2025-12-22T22:44:20.618968+00:00", "meta": {"OBJECT_NAME": "GALAXY 35 (G-35)", "OBJECT_ID": "2022-170A", "EPOCH": "2025-12-22T10:03:11.694240", "MEAN_MOTION": 1.00271748, "ECCENTRICITY": 0.00021945, "INCLINATION": 0.0194, "RA_OF_ASC_NODE": 82.469, "ARG_OF_PERICENTER": 191.3059, "MEAN_ANOMALY": 235.1564, "EPHEMERIS_TYPE": 0, "CLASSIFICATION_TYPE": "U", "NORAD_CAT_ID": 54741, "ELEMENT_SET_NO": 999, "REV_AT_EPOCH": 1112, "BSTAR": 0, "MEAN_MOTION_DOT": -1.41e-06, "MEAN_MOTION_DDOT": 0}, "tle": {"line1": "1 54741U 22170A   25356.41888535 -.00000141  00000+0  00000+0 0  9991", "line2": "2 54741   0.0194  82.4690 0002194 191.3059 235.1564  1.00271748 11121"}}, "geometry": {"type": "Point", "coordinates": [-20.24447029945659, -0.024829610223151232]}}, {"type": "Feature", "properties": {"norad_id": 54742, "name": "GALAXY 36 (G-36)", "group": "intelsat", "lat": -0.026020554603377096, "lon": -16.186883563012337, "alt_km": 35785.1127508937, "timestamp": "2025-12-22T22:44:20.618980+00:00", "meta": {"OBJECT_NAME": "GALAXY 36 (G-36)", "OBJECT_ID": "2022-170B", "EPOCH": "2025-12-22T10:05:07.974816", "MEAN_MOTION": 1.00268671, "ECCENTRICITY": 4.471e-05, "INCLINATION": 0.0157, "RA_OF_ASC_NODE": 42.8223, "ARG_OF_PERICENTER": 300.2529, "MEAN_ANOMALY": 170.4284, "EPHEMERIS_TYPE": 0, "CLASSIFICATION_TYPE": "U", "NORAD_CAT_ID": 54742, "ELEMENT_SET_NO": 999, "REV_AT_EPOCH": 1100, "BSTAR": 0, "MEAN_MOTION_DOT": 0, "MEAN_MOTION_DDOT": 0}, "tle": {"line1": "1 54742U 22170B   25356.42023119  .00000000  00000+0  00000+0 0  9995", "line2": "2 54742   0.0157  42.8223 0000447 300.2529 170.4284  1.00268671 11003"}}, "geometry": {"type": "Point", "coordinates": [-16.186883563012337, -0.026020554603377096]}}, {"type": "Feature", "properties": {"norad_id": 57493, "name": "GALAXY 37 (G-37)", "group": "intelsat", "lat": -0.030340523416312187, "lon": -54.17341272084571, "alt_km": 35779.00474682819, "timestamp": "2025-12-22T22:44:20.618992+00:00", "meta": {"OBJECT_NAME": "GALAXY 37 (G-37)", "OBJECT_ID": "2023-112A", "EPOCH": "2025-12-22T11:38:10.684896", "MEAN_MOTION": 1.00271284, "ECCENTRICITY": 0.00019725, "INCLINATION": 0.0081, "RA_OF_ASC_NODE": 33.5643, "ARG_OF_PERICENTER": 241.6184, "MEAN_ANOMALY": 223.6426, "EPHEMERIS_TYPE": 0, "CLASSIFICATION_TYPE": "U", "NORAD_CAT_ID": 57493, "ELEMENT_SET_NO": 999, "REV_AT_EPOCH": 877, "BSTAR": 0, "MEAN_MOTION_DOT": 7e-07, "MEAN_MOTION_DDOT": 0}, "tle": {"line1": "1 57493U 23112A   25356.48484589  .00000070  00000+0  00000+0 0  9993", "line2": "2 57493   0.0081  33.5643 0001972 241.6184 223.6426  1.00271284  8770"}}, "geometry": {"type": "Point", "coordinates": [-54.17341272084571, -0.030340523416312187]}}]}